NORAD_CAT_ID,OBJECT_NAME,OBJECT_TYPE,EPOCH,MEAN_MOTION,ECCENTRICITY,INCLINATION,RA_OF_ASC_NODE,ARG_OF_PERICENTER,MEAN_ANOMALY,BSTAR,MEAN_MOTION_DOT,MEAN_MOTION_DDOT,TLE_LINE0,TLE_LINE1,TLE_LINE2,SEMIMAJOR_AXIS,PERIOD,APOGEE,PERIGEE,DECAYED
52335.0,STARLINK-3814,PAYLOAD,2023-09-25 17:50:11,15.08850208,0.0001368,53.2145,271.1825,96.0207,264.0941,0.00020554,2.986e-05,0.0,0 STARLINK-3814,1 52335U 22045E   23268.74319242  .00002986  00000-0  20554-3 0  9998,2 52335  53.2145 271.1825 0001368  96.0207 264.0941 15.08850208 80380,6917.849,95.437,540.661,538.768,0.0
52335.0,STARLINK-3814,PAYLOAD,2023-09-26 00:11:44,15.08846391,0.0001406,53.2143,269.9926,96.328,263.7872,0.00038925,5.913e-05,0.0,0 STARLINK-3814,1 52335U 22045E   23269.00815494  .00005913  00000-0  38925-3 0  9992,2 52335  53.2143 269.9926 0001406  96.3280 263.7872 15.08846391 80424,6917.861,95.437,540.699,538.753,0.0
52335.0,STARLINK-3814,PAYLOAD,2023-09-26 06:33:16,15.08853229,0.0001432,53.2144,268.8032,96.0873,264.0283,0.0003132,4.702e-05,0.0,0 STARLINK-3814,1 52335U 22045E   23269.27311030  .00004702  00000-0  31320-3 0  9995,2 52335  53.2144 268.8032 0001432  96.0873 264.0283 15.08853229 80467,6917.84,95.437,540.696,538.714,0.0
52335.0,STARLINK-3814,PAYLOAD,2023-09-27 04:48:40,15.08844007,0.0001388,53.2141,264.6395,107.302,252.8123,6.6687e-05,7.74e-06,0.0,0 STARLINK-3814,1 52335U 22045E   23270.20047173  .00000774  00000-0  66687-4 0  9994,2 52335  53.2141 264.6395 0001388 107.3020 252.8123 15.08844007 80608,6917.868,95.437,540.693,538.773,0.0
52335.0,STARLINK-3814,PAYLOAD,2023-09-27 09:34:50,15.08840487,0.0001394,53.2142,263.7472,95.7072,264.4079,1.0948e-05,-1.14e-06,0.0,0 STARLINK-3814,1 52335U 22045E   23270.39919346 -.00000114  00000-0  10948-4 0  9992,2 52335  53.2142 263.7472 0001394  95.7072 264.4079 15.08840487 80639,6917.879,95.438,540.708,538.78,0.0
52335.0,STARLINK-3814,PAYLOAD,2023-09-28 04:39:28,15.08830509,0.0001568,53.2151,260.1763,100.3201,259.7968,-0.000116,-2.133e-05,0.0,0 STARLINK-3814,1 52335U 22045E   23271.19408247 -.00002133  00000-0 -11600-3 0  9993,2 52335  53.2151 260.1763 0001568 100.3201 259.7968 15.08830509 80754,6917.909,95.438,540.859,538.69,0.0
52335.0,STARLINK-3814,PAYLOAD,2023-09-28 09:25:38,15.08832732,0.0001554,53.2165,259.2845,105.7975,254.3188,-8.421e-05,-1.628e-05,0.0,0 STARLINK-3814,1 52335U 22045E   23271.39280611 -.00001628  00000-0 -84210-4 0  9994,2 52335  53.2165 259.2845 0001554 105.7975 254.3188 15.08832732 80789,6917.903,95.438,540.843,538.693,0.0
52335.0,STARLINK-3814,PAYLOAD,2023-09-28 23:44:06,15.08833371,0.0001448,53.2171,256.6108,105.3407,254.7745,0.0001374,1.899e-05,0.0,0 STARLINK-3814,1 52335U 22045E   23271.98896195  .00001899  00000-0  13740-3 0  9996,2 52335  53.2171 256.6108 0001448 105.3407 254.7745 15.08833371 80870,6917.901,95.438,540.767,538.764,0.0
52335.0,STARLINK-3814,PAYLOAD,2023-09-29 09:16:24,15.08843492,0.000141,53.217,254.8261,92.2012,267.9141,0.00022827,3.347e-05,0.0,0 STARLINK-3814,1 52335U 22045E   23272.38639696  .00003347  00000-0  22827-3 0  9998,2 52335  53.2170 254.8261 0001410  92.2012 267.9141 15.08843492 80932,6917.87,95.437,540.71,538.759,0.0
52335.0,STARLINK-3814,PAYLOAD,2023-09-30 04:21:02,15.08844309,0.0001454,53.2168,251.2563,84.7749,275.341,9.9325e-05,1.293e-05,0.0,0 STARLINK-3814,1 52335U 22045E   23273.18128203  .00001293  00000-0  99325-4 0  9990,2 52335  53.2168 251.2563 0001454  84.7749 275.3410 15.08844309 81050,6917.867,95.437,540.738,538.726,0.0
52335.0,STARLINK-3814,PAYLOAD,2023-09-30 15:28:45,15.08835571,0.000132,53.2157,249.1762,98.6219,261.4923,7.4509e-05,8.98e-06,0.0,0 STARLINK-3814,1 52335U 22045E   23273.64496747  .00000898  00000-0  74509-4 0  9999,2 52335  53.2157 249.1762 0001320  98.6219 261.4923 15.08835571 81127,6917.894,95.438,540.672,538.846,0.0
52335.0,STARLINK-3814,PAYLOAD,2023-10-01 07:22:36,15.08848095,0.0001631,53.2174,246.2038,97.6979,262.4199,5.1571e-05,5.33e-06,0.0,0 STARLINK-3814,1 52335U 22045E   23274.30736187  .00000533  00000-0  51571-4 0  9998,2 52335  53.2174 246.2038 0001631  97.6979 262.4199 15.08848095 81229,6917.856,95.437,540.849,538.592,0.0
52335.0,STARLINK-3814,PAYLOAD,2023-10-01 15:19:32,15.08842857,0.0001625,53.2175,244.715,90.8881,269.2298,-8.0058e-06,-4.15e-06,0.0,0 STARLINK-3814,1 52335U 22045E   23274.63856547 -.00000415  00000-0 -80058-5 0  9991,2 52335  53.2175 244.7150 0001625  90.8881 269.2298 15.08842857 81278,6917.872,95.437,540.861,538.613,0.0
52335.0,STARLINK-3814,PAYLOAD,2023-10-02 02:27:14,15.08834167,0.000175,53.218,242.6317,83.5316,276.5875,-1.519e-05,-5.3e-06,0.0,0 STARLINK-3814,1 52335U 22045E   23275.10225374 -.00000530  00000-0 -15190-4 0  9994,2 52335  53.2180 242.6317 0001750  83.5316 276.5875 15.08834167 81342,6917.898,95.438,540.974,538.553,0.0
52335.0,STARLINK-3814,PAYLOAD,2023-10-02 15:10:19,15.08842992,0.0001526,53.2175,240.2552,90.6378,269.4789,3.5601e-05,2.79e-06,0.0,0 STARLINK-3814,1 52335U 22045E   23275.63216676  .00000279  00000-0  35601-4 0  9994,2 52335  53.2175 240.2552 0001526  90.6378 269.4789 15.08842992 81428,6917.871,95.437,540.792,538.681,0.0
52335.0,STARLINK-3814,PAYLOAD,2023-10-03 07:04:10,15.08853833,0.000141,53.215,237.2806,104.0152,256.0997,0.00024362,3.593e-05,0.0,0 STARLINK-3814,1 52335U 22045E   23276.29456024  .00003593  00000-0  24362-3 0  9993,2 52335  53.2150 237.2806 0001410 104.0152 256.0997 15.08853833 81521,6917.838,95.437,540.679,538.728,0.0
52335.0,STARLINK-3814,PAYLOAD,2023-10-03 15:01:06,15.08843759,0.0001396,53.2159,235.7935,96.2235,263.8916,0.00010535,1.389e-05,0.0,0 STARLINK-3814,1 52335U 22045E   23276.62576581  .00001389  00000-0  10535-3 0  9999,2 52335  53.2159 235.7935 0001396  96.2235 263.8916 15.08843759 81571,6917.869,95.437,540.7,538.768,0.0
52335.0,STARLINK-3814,PAYLOAD,2023-10-04 06:54:57,15.08841263,0.0001943,53.2155,232.8217,81.2409,278.8803,9.2885e-05,1.19e-05,0.0,0 STARLINK-3814,1 52335U 22045E   23277.28817121  .00001190  00000-0  92885-4 0  9999,2 52335  53.2155 232.8217 0001943  81.2409 278.8803 15.08841263 81673,6917.877,95.437,541.086,538.397,0.0
52335.0,STARLINK-3814,PAYLOAD,2023-10-04 21:13:26,15.08844249,0.0001805,53.2155,230.1441,86.6256,273.4943,0.00010166,1.33e-05,0.0,0 STARLINK-3814,1 52335U 22045E   23277.88432909  .00001330  00000-0  10166-3 0  9999,2 52335  53.2155 230.1441 0001805  86.6256 273.4943 15.08844249 81762,6917.867,95.437,540.981,538.484,0.0
52335.0,STARLINK-3814,PAYLOAD,2023-10-05 06:45:44,15.08857806,0.0001541,53.2155,228.3592,96.6414,263.4753,0.00038643,5.87e-05,0.0,0 STARLINK-3814,1 52335U 22045E   23278.28176171  .00005870  00000-0  38643-3 0  9993,2 52335  53.2155 228.3592 0001541  96.6414 263.4753 15.08857806 81820,6917.826,95.436,540.757,538.625,0.0
52335.0,STARLINK-3814,PAYLOAD,2023-10-06 05:01:08,15.08854452,0.0001301,53.2166,224.1977,98.9294,261.1846,0.0005139,7.903e-05,0.0,0 STARLINK-3814,1 52335U 22045E   23279.20912493  .00007903  00000-0  51390-3 0  9994,2 52335  53.2166 224.1977 0001301  98.9294 261.1846 15.08854452 81965,6917.836,95.437,540.601,538.801,0.0
52335.0,STARLINK-3814,PAYLOAD,2023-10-06 12:58:04,15.08847555,0.0001276,53.2161,222.7107,81.129,278.9847,0.0007372,0.00011466,0.0,0 STARLINK-3814,1 52335U 22045E   23279.54032669  .00011466  00000-0  73720-3 0  9999,2 52335  53.2161 222.7107 0001276  81.1290 278.9847 15.08847555 82010,6917.857,95.437,540.605,538.84,0.0
52335.0,STARLINK-3814,PAYLOAD,2023-10-07 01:41:09,15.08834857,0.0001748,53.2178,220.3391,125.8705,234.2449,-2.9552e-05,-7.58e-06,0.0,0 STARLINK-3814,1 52335U 22045E   23280.07025171 -.00000758  00000-0 -29552-4 0  9998,2 52335  53.2178 220.3391 0001748 125.8705 234.2449 15.08834857 82090,6917.896,95.438,540.97,538.552,0.0
52335.0,STARLINK-3814,PAYLOAD,2023-10-07 12:48:51,15.08835885,0.0001175,53.2161,218.2507,97.7017,262.4108,0.00050151,7.702e-05,0.0,0 STARLINK-3814,1 52335U 22045E   23280.53393444  .00007702  00000-0  50151-3 0  9992,2 52335  53.2161 218.2507 0001175  97.7017 262.4108 15.08835885 82169,6917.893,95.438,540.571,538.945,0.0
52335.0,STARLINK-3814,PAYLOAD,2023-10-08 03:07:19,15.08852174,0.0001165,53.2162,215.5743,91.3736,268.7389,0.000735,0.00011433,0.0,0 STARLINK-3814,1 52335U 22045E   23281.13009206  .00011433  00000-0  73500-3 0  9998,2 52335  53.2162 215.5743 0001165  91.3736 268.7389 15.08852174 82259,6917.843,95.437,540.514,538.902,0.0
52335.0,STARLINK-3814,PAYLOAD,2023-10-08 06:18:05,15.08865976,0.0001367,53.2165,214.9794,96.0013,264.1135,0.0012078,0.00019,0.0,0 STARLINK-3814,1 52335U 22045E   23281.26256941  .00019000  00000-0  12078-2 0  9992,2 52335  53.2165 214.9794 0001367  96.0013 264.1135 15.08865976 82270,6917.801,95.436,540.612,538.72,0.0
52335.0,STARLINK-3814,PAYLOAD,2023-10-08 12:39:38,15.08850573,0.0001629,53.2157,213.7886,89.4498,270.6681,0.00065295,0.00010122,0.0,0 STARLINK-3814,1 52335U 22045E   23281.52753328  .00010122  00000-0  65295-3 0  9998,2 52335  53.2157 213.7886 0001629  89.4498 270.6681 15.08850573 82314,6917.848,95.437,540.84,538.586,0.0
52335.0,STARLINK-3814,PAYLOAD,2023-10-08 19:01:11,15.08852916,0.0001898,53.2146,212.6001,86.691,273.43,0.00065837,0.00010209,0.0,0 STARLINK-3814,1 52335U 22045E   23281.79249297  .00010209  00000-0  65837-3 0  9990,2 52335  53.2146 212.6001 0001898  86.6910 273.4300 15.08852916 82351,6917.841,95.437,541.019,538.393,0.0
52335.0,STARLINK-3814,PAYLOAD,2023-10-08 20:36:34,15.0885196,0.0001373,53.2165,212.3053,99.7753,260.3394,0.00055139,8.501e-05,0.0,0 STARLINK-3814,1 52335U 22045E   23281.85873117  .00008501  00000-0  55139-3 0  9997,2 52335  53.2165 212.3053 0001373  99.7753 260.3394 15.08851960 82361,6917.844,95.437,540.659,538.759,0.0
52335.0,STARLINK-3814,PAYLOAD,2023-10-09 04:33:29,15.08865388,0.0001539,53.2159,210.8185,91.7682,268.3486,0.0017498,0.00027689,0.0,0 STARLINK-3814,1 52335U 22045E   23282.18992841  .00027689  00000-0  17498-2 0  9993,2 52335  53.2159 210.8185 0001539  91.7682 268.3486 15.08865388 82415,6917.803,95.436,540.732,538.603,0.0
